{
  "links" : {
    "next" : "https://api.nasa.gov/neo/rest/v1/neo/browse?page=6&size=20&api_key=jqAGvNAwUIBu4fl9FSOjdm3V4F7hIglRzI6pdX9d",
    "prev" : "https://api.nasa.gov/neo/rest/v1/neo/browse?page=4&size=20&api_key=jqAGvNAwUIBu4fl9FSOjdm3V4F7hIglRzI6pdX9d",
    "self" : "https://api.nasa.gov/neo/rest/v1/neo/browse?page=5&size=20&api_key=jqAGvNAwUIBu4fl9FSOjdm3V4F7hIglRzI6pdX9d"
  },
  "page" : {
    "size" : 20,
    "total_elements" : 20750,
    "total_pages" : 1038,
    "number" : 5
  },
  "near_earth_objects" : [ {
    "links" : {
      "self" : "https://api.nasa.gov/neo/rest/v1/neo/3092277?api_key=jqAGvNAwUIBu4fl9FSOjdm3V4F7hIglRzI6pdX9d"
    },
    "neo_reference_id" : "3092277",
    "name" : "(2000 WS28)",
    "designation" : "2000 WS28",
    "nasa_jpl_url" : "http://ssd.jpl.nasa.gov/sbdb.cgi?sstr=3092277",
    "absolute_magnitude_h" : 23.4,
    "estimated_diameter" : {
      "kilometers" : {
        "estimated_diameter_min" : 0.0555334912,
        "estimated_diameter_max" : 0.1241766613
      },
      "meters" : {
        "estimated_diameter_min" : 55.5334911581,
        "estimated_diameter_max" : 124.1766612574
      },
      "miles" : {
        "estimated_diameter_min" : 0.0345069009,
        "estimated_diameter_max" : 0.0771597762
      },
      "feet" : {
        "estimated_diameter_min" : 182.1964991311,
        "estimated_diameter_max" : 407.4037573197
      }
    },
    "is_potentially_hazardous_asteroid" : false,
    "close_approach_data" : [ {
      "close_approach_date" : "2000-11-23",
      "epoch_date_close_approach" : 974966400000,
      "relative_velocity" : {
        "kilometers_per_second" : "12.3563255291",
        "kilometers_per_hour" : "44482.7719046549",
        "miles_per_hour" : "27639.8645759785"
      },
      "miss_distance" : {
        "astronomical" : "0.029657903",
        "lunar" : "11.5369243622",
        "kilometers" : "4436759",
        "miles" : "2756874.25"
      },
      "orbiting_body" : "Earth"
    } ],
    "orbital_data" : {
      "orbit_id" : "11",
      "orbit_determination_date" : "2017-04-06 09:16:42",
      "first_observation_date" : "2000-11-20",
      "last_observation_date" : "2000-11-23",
      "data_arc_in_days" : 3,
      "observations_used" : 11,
      "orbit_uncertainty" : "9",
      "minimum_orbit_intersection" : ".0170871",
      "jupiter_tisserand_invariant" : "3.552",
      "epoch_osculation" : "2451870.5",
      "eccentricity" : ".5651150409809977",
      "semi_major_axis" : "2.062289105571944",
      "inclination" : "7.746331379401887",
      "ascending_node_longitude" : "57.72506487302431",
      "orbital_period" : "1081.739648965192",
      "perihelion_distance" : ".8968585131619898",
      "perihelion_argument" : "49.84926464134781",
      "aphelion_distance" : "3.227719697981899",
      "perihelion_time" : "2451905.198585252223",
      "mean_anomaly" : "348.4524056201972",
      "mean_motion" : ".332797268126745",
      "equinox" : "J2000",
      "orbit_class" : {
        "orbit_class_type" : "APO",
        "orbit_class_range" : "a (semi-major axis) > 1.0 AU; q (perihelion) < 1.017 AU",
        "orbit_class_description" : "Near-Earth asteroid orbits which cross the Earth’s orbit similar to that of 1862 Apollo"
      }
    },
    "is_sentry_object" : false
  }, {
    "links" : {
      "self" : "https://api.nasa.gov/neo/rest/v1/neo/3070712?api_key=jqAGvNAwUIBu4fl9FSOjdm3V4F7hIglRzI6pdX9d"
    },
    "neo_reference_id" : "3070712",
    "name" : "(2000 WT28)",
    "designation" : "2000 WT28",
    "nasa_jpl_url" : "http://ssd.jpl.nasa.gov/sbdb.cgi?sstr=3070712",
    "absolute_magnitude_h" : 24.5,
    "estimated_diameter" : {
      "kilometers" : {
        "estimated_diameter_min" : 0.0334622374,
        "estimated_diameter_max" : 0.0748238376
      },
      "meters" : {
        "estimated_diameter_min" : 33.4622374455,
        "estimated_diameter_max" : 74.8238376074
      },
      "miles" : {
        "estimated_diameter_min" : 0.0207924639,
        "estimated_diameter_max" : 0.0464933628
      },
      "feet" : {
        "estimated_diameter_min" : 109.7842471007,
        "estimated_diameter_max" : 245.4850393757
      }
    },
    "is_potentially_hazardous_asteroid" : false,
    "close_approach_data" : [ {
      "close_approach_date" : "1996-09-27",
      "epoch_date_close_approach" : 843807600000,
      "relative_velocity" : {
        "kilometers_per_second" : "23.0802544122",
        "kilometers_per_hour" : "83088.9158839063",
        "miles_per_hour" : "51628.2210946417"
      },
      "miss_distance" : {
        "astronomical" : "0.4977086578",
        "lunar" : "193.6086578369",
        "kilometers" : "74456152",
        "miles" : "46264908"
      },
      "orbiting_body" : "Earth"
    }, {
      "close_approach_date" : "2000-11-16",
      "epoch_date_close_approach" : 974361600000,
      "relative_velocity" : {
        "kilometers_per_second" : "8.5026466031",
        "kilometers_per_hour" : "30609.5277710577",
        "miles_per_hour" : "19019.5701864108"
      },
      "miss_distance" : {
        "astronomical" : "0.0215047714",
        "lunar" : "8.3653554916",
        "kilometers" : "3217068",
        "miles" : "1998993.375"
      },
      "orbiting_body" : "Earth"
    }, {
      "close_approach_date" : "2005-01-20",
      "epoch_date_close_approach" : 1106208000000,
      "relative_velocity" : {
        "kilometers_per_second" : "21.1194184061",
        "kilometers_per_hour" : "76029.9062620273",
        "miles_per_hour" : "47242.0270326469"
      },
      "miss_distance" : {
        "astronomical" : "0.4405900026",
        "lunar" : "171.3895111084",
        "kilometers" : "65911324",
        "miles" : "40955400"
      },
      "orbiting_body" : "Earth"
    } ],
    "orbital_data" : {
      "orbit_id" : "11",
      "orbit_determination_date" : "2017-04-06 09:16:41",
      "first_observation_date" : "2000-11-20",
      "last_observation_date" : "2001-01-24",
      "data_arc_in_days" : 65,
      "observations_used" : 12,
      "orbit_uncertainty" : "7",
      "minimum_orbit_intersection" : ".0263194",
      "jupiter_tisserand_invariant" : "3.141",
      "epoch_osculation" : "2458600.5",
      "eccentricity" : ".6084060714753573",
      "semi_major_axis" : "2.55961743924471",
      "inclination" : "5.589042188511101",
      "ascending_node_longitude" : "46.9511045461052",
      "orbital_period" : "1495.756908982027",
      "perihelion_distance" : "1.002330648554022",
      "perihelion_argument" : "20.34276632884857",
      "aphelion_distance" : "4.116904229935398",
      "perihelion_time" : "2459338.107324792011",
      "mean_anomaly" : "182.4720639225778",
      "mean_motion" : ".24068082041821",
      "equinox" : "J2000",
      "orbit_class" : {
        "orbit_class_type" : "APO",
        "orbit_class_range" : "a (semi-major axis) > 1.0 AU; q (perihelion) < 1.017 AU",
        "orbit_class_description" : "Near-Earth asteroid orbits which cross the Earth’s orbit similar to that of 1862 Apollo"
      }
    },
    "is_sentry_object" : false
  } ]
}